GLOBALSTAR M075         
1 37192U 10054E   25169.36167222 -.00000091  00000+0  71715-4 0  9999
2 37192  51.9917 177.9608 0000089  81.9644  25.4428 12.62265828675996
GLOBALSTAR M073         
1 37193U 10054F   25169.53400700 -.00000101  00000+0  14381-4 0  9998
2 37193  52.0062  91.2548 0000646  36.1773 134.5391 12.62272008678009
GLOBALSTAR M083         
1 37739U 11033A   25169.38909729 -.00000104  00000+0 -21985-5 0  9993
2 37739  51.9873  40.4273 0000610  76.7438  94.4651 12.62263898647009
GLOBALSTAR M088         
1 37740U 11033B   25169.32831513 -.00000092  00000+0  67339-4 0  9991
2 37740  52.0062 306.1634 0000812 121.5106 253.9930 12.62265554642548
GLOBALSTAR M091         
1 37741U 11033C   25169.58002045 -.00000092  00000+0  63922-4 0  9994
2 37741  52.0000 268.8939 0000636 156.4727 223.6288 12.62268855643361
GLOBALSTAR M085         
1 37742U 11033D   25169.40686492 -.00000102  00000+0  94840-5 0  9996
2 37742  51.9846 220.4575 0000401 186.6001 186.7585 12.62269432643853
GLOBALSTAR M081         
1 37743U 11033E   25169.45303569 -.00000097  00000+0  38865-4 0  9990
2 37743  51.9941 223.1067 0000208 197.7361 264.2324 12.62266614644003
GLOBALSTAR M089         
1 37744U 11033F   25169.42319969 -.00000093  00000+0  62322-4 0  9990
2 37744  51.9900 177.4224 0000320  42.6645 105.0113 12.62264863644847
